{
    "links": {
        "self": "http://www.neowsapp.com/rest/v1/neo/3844017?api_key=iIulBulltgU6a56xZRHN4H3l9WmuAYTsLGpBGhQ2"
    },
    "id": "3844017",
    "neo_reference_id": "3844017",
    "name": "(2019 SB3)",
    "designation": "2019 SB3",
    "nasa_jpl_url": "http://ssd.jpl.nasa.gov/sbdb.cgi?sstr=3844017",
    "absolute_magnitude_h": 25.4,
    "estimated_diameter": {
        "kilometers": {
            "estimated_diameter_min": 0.022108281,
            "estimated_diameter_max": 0.0494356193
        },
        "meters": {
            "estimated_diameter_min": 22.1082810359,
            "estimated_diameter_max": 49.435619262
        },
        "miles": {
            "estimated_diameter_min": 0.0137374447,
            "estimated_diameter_max": 0.0307178602
        },
        "feet": {
            "estimated_diameter_min": 72.5337327539,
            "estimated_diameter_max": 162.1903570994
        }
    },
    "is_potentially_hazardous_asteroid": false,
    "close_approach_data": [
        {
            "close_approach_date": "2006-09-28",
            "close_approach_date_full": "2006-Sep-28 20:52",
            "epoch_date_close_approach": 1159476720000,
            "relative_velocity": {
                "kilometers_per_second": "4.3351722087",
                "kilometers_per_hour": "15606.6199513008",
                "miles_per_hour": "9697.3467136291"
            },
            "miss_distance": {
                "astronomical": "0.1373341434",
                "lunar": "53.4229817826",
                "kilometers": "20544895.330914558",
                "miles": "12766005.9910665804"
            },
            "orbiting_body": "Earth"
        },
        {
            "close_approach_date": "2019-10-03",
            "close_approach_date_full": "2019-Oct-03 20:04",
            "epoch_date_close_approach": 1570133040000,
            "relative_velocity": {
                "kilometers_per_second": "3.6406650832",
                "kilometers_per_hour": "13106.3942993493",
                "miles_per_hour": "8143.803724504"
            },
            "miss_distance": {
                "astronomical": "0.1085311487",
                "lunar": "42.2186168443",
                "kilometers": "16236028.674173269",
                "miles": "10088600.4035143522"
            },
            "orbiting_body": "Earth"
        },
        {
            "close_approach_date": "2032-10-08",
            "close_approach_date_full": "2032-Oct-08 00:21",
            "epoch_date_close_approach": 1980807660000,
            "relative_velocity": {
                "kilometers_per_second": "5.3850670255",
                "kilometers_per_hour": "19386.2412918517",
                "miles_per_hour": "12045.8564293731"
            },
            "miss_distance": {
                "astronomical": "0.1810099687",
                "lunar": "70.4128778243",
                "kilometers": "27078705.766286669",
                "miles": "16825927.5345432722"
            },
            "orbiting_body": "Earth"
        }
    ],
    "orbital_data": {
        "orbit_id": "4",
        "orbit_determination_date": "2019-11-07 01:46:43",
        "first_observation_date": "2019-09-22",
        "last_observation_date": "2019-10-25",
        "data_arc_in_days": 33,
        "observations_used": 19,
        "orbit_uncertainty": "7",
        "minimum_orbit_intersection": ".107622",
        "jupiter_tisserand_invariant": "4.170",
        "epoch_osculation": "2459000.5",
        "eccentricity": ".3393492498617526",
        "semi_major_axis": "1.676052775317477",
        "inclination": "3.705741904459625",
        "ascending_node_longitude": "12.58282918871058",
        "orbital_period": "792.5560055087826",
        "perihelion_distance": "1.107285523284783",
        "perihelion_argument": "359.8454041850903",
        "aphelion_distance": "2.244820027350171",
        "perihelion_time": "2458763.708265198102",
        "mean_anomaly": "107.5570987238437",
        "mean_motion": ".4542265751540138",
        "equinox": "J2000",
        "orbit_class": {
            "orbit_class_type": "AMO",
            "orbit_class_description": "Near-Earth asteroid orbits similar to that of 1221 Amor",
            "orbit_class_range": "1.017 AU < q (perihelion) < 1.3 AU"
        }
    },
    "is_sentry_object": false
}